[{"OBJECT_NAME":"STARLINK-5697","OBJECT_ID":"2023-020W","EPOCH":"2026-03-09T22:00:01.999584","MEAN_MOTION":15.10960838,"ECCENTRICITY":8.729e-5,"INCLINATION":43.0005,"RA_OF_ASC_NODE":3.1004,"ARG_OF_PERICENTER":307.7189,"MEAN_ANOMALY":175.5763,"EPHEMERIS_TYPE":0,"CLASSIFICATION_TYPE":"U","NORAD_CAT_ID":55589,"ELEMENT_SET_NO":999,"REV_AT_EPOCH":573,"BSTAR":0.072755061,"MEAN_MOTION_DOT":0.01343581,"MEAN_MOTION_DDOT":0},{"OBJECT_NAME":"TIANYI D","OBJECT_ID":"2025-103D","EPOCH":"2026-03-09T23:34:58.761120","MEAN_MOTION":15.17585696,"ECCENTRICITY":0.00029978,"INCLINATION":97.3899,"RA_OF_ASC_NODE":142.5822,"ARG_OF_PERICENTER":153.0168,"MEAN_ANOMALY":207.1222,"EPHEMERIS_TYPE":0,"CLASSIFICATION_TYPE":"U","NORAD_CAT_ID":64051,"ELEMENT_SET_NO":999,"REV_AT_EPOCH":4495,"BSTAR":0.00030791157,"MEAN_MOTION_DOT":6.122e-5,"MEAN_MOTION_DDOT":0}]
